start=new Date('2022-11-24T00:00:00.000Z').valueOf();
sats=[{"FILE":"3668134","CLASSIFICATION_TYPE":"U","REF_FRAME":"TEME","GP_ID":"218543436","EPHEMERIS_TYPE":"0","RA_OF_ASC_NODE":"259.3683","OBJECT_TYPE":"PAYLOAD","SEMIMAJOR_AXIS":"6925.365","TLE_LINE2":"2 47899  53.0547 259.3683 0001705  55.6150 304.5000 15.06394617 95114","MEAN_MOTION_DOT":"0.00001286","MEAN_MOTION":"15.06394617","EPOCH":"2022-11-23T07:03:15.677280","CENTER_NAME":"EARTH","DECAY_DATE":null,"MEAN_MOTION_DDOT":"0.0000000000000","REV_AT_EPOCH":"9511","OBJECT_ID":"2021-021AR","ECCENTRICITY":"0.00017050","MEAN_ANOMALY":"304.5000","TIME_SYSTEM":"UTC","OBJECT_NAME":"STARLINK-2359","PERIOD":"95.592","NORAD_CAT_ID":"47899","RCS_SIZE":"LARGE","LAUNCH_DATE":"2021-03-14","INCLINATION":"53.0547","ARG_OF_PERICENTER":"55.6150","BSTAR":"0.00010521000000","COUNTRY_CODE":"US","TLE_LINE1":"1 47899U 21021AR  22327.29393145  .00001286  00000-0  10521-3 0  9994","MEAN_ELEMENT_THEORY":"SGP4","APOAPSIS":"548.411","SITE":"AFETR","ELEMENT_SET_NO":"999","PERIAPSIS":"546.049"},{"NORAD_CAT_ID":"47900","RCS_SIZE":"LARGE","COUNTRY_CODE":"US","BSTAR":"-0.00001469500000","INCLINATION":"53.0553","ARG_OF_PERICENTER":"58.1873","LAUNCH_DATE":"2021-03-14","SITE":"AFETR","MEAN_ELEMENT_THEORY":"SGP4","TLE_LINE1":"1 47900U 21021AS  22327.25246565 -.00000500  00000-0 -14695-4 0  9993","APOAPSIS":"548.384","ELEMENT_SET_NO":"999","PERIAPSIS":"546.053","OBJECT_TYPE":"PAYLOAD","REF_FRAME":"TEME","GP_ID":"218512044","EPHEMERIS_TYPE":"0","RA_OF_ASC_NODE":"269.5793","FILE":"3667735","CLASSIFICATION_TYPE":"U","EPOCH":"2022-11-23T06:03:33.032160","MEAN_MOTION":"15.06398501","MEAN_MOTION_DOT":"-0.00000500","SEMIMAJOR_AXIS":"6925.353","TLE_LINE2":"2 47900  53.0553 269.5793 0001683  58.1873 301.9280 15.06398501 94480","REV_AT_EPOCH":"9448","CENTER_NAME":"EARTH","DECAY_DATE":null,"MEAN_MOTION_DDOT":"0.0000000000000","PERIOD":"95.592","ECCENTRICITY":"0.00016830","MEAN_ANOMALY":"301.9280","TIME_SYSTEM":"UTC","OBJECT_NAME":"STARLINK-2360","OBJECT_ID":"2021-021AS"},{"NORAD_CAT_ID":"47901","RCS_SIZE":"LARGE","COUNTRY_CODE":"US","BSTAR":"0.00015690000000","INCLINATION":"53.0552","ARG_OF_PERICENTER":"53.0086","LAUNCH_DATE":"2021-03-14","SITE":"AFETR","TLE_LINE1":"1 47901U 21021AT  22327.54921830  .00002056  00000-0  15690-3 0  9992","APOAPSIS":"548.540","MEAN_ELEMENT_THEORY":"SGP4","PERIAPSIS":"545.927","ELEMENT_SET_NO":"999","OBJECT_TYPE":"PAYLOAD","REF_FRAME":"TEME","RA_OF_ASC_NODE":"258.3301","GP_ID":"218573462","EPHEMERIS_TYPE":"0","FILE":"3668163","CLASSIFICATION_TYPE":"U","EPOCH":"2022-11-23T13:10:52.461120","MEAN_MOTION_DOT":"0.00002056","MEAN_MOTION":"15.06393481","SEMIMAJOR_AXIS":"6925.369","TLE_LINE2":"2 47901  53.0552 258.3301 0001886  53.0086 307.1075 15.06393481 94657","REV_AT_EPOCH":"9465","CENTER_NAME":"EARTH","DECAY_DATE":null,"MEAN_MOTION_DDOT":"0.0000000000000","PERIOD":"95.593","MEAN_ANOMALY":"307.1075","ECCENTRICITY":"0.00018860","TIME_SYSTEM":"UTC","OBJECT_NAME":"STARLINK-2361","OBJECT_ID":"2021-021AT"},{"OBJECT_TYPE":"PAYLOAD","CLASSIFICATION_TYPE":"U","FILE":"3668355","GP_ID":"218600635","RA_OF_ASC_NODE":"276.8353","EPHEMERIS_TYPE":"0","REF_FRAME":"TEME","MEAN_MOTION_DOT":"-0.00000882","MEAN_MOTION":"15.06398775","EPOCH":"2022-11-23T20:44:40.932960","TLE_LINE2":"2 47902  53.0552 276.8353 0001919  45.0425 315.0719 15.06398775 95010","SEMIMAJOR_AXIS":"6925.352","REV_AT_EPOCH":"9501","MEAN_MOTION_DDOT":"0.0000000000000","DECAY_DATE":null,"CENTER_NAME":"EARTH","PERIOD":"95.592","OBJECT_ID":"2021-021AU","TIME_SYSTEM":"UTC","OBJECT_NAME":"STARLINK-2362","MEAN_ANOMALY":"315.0719","ECCENTRICITY":"0.00019190","RCS_SIZE":"LARGE","NORAD_CAT_ID":"47902","BSTAR":"-0.00004032300000","COUNTRY_CODE":"US","LAUNCH_DATE":"2021-03-14","ARG_OF_PERICENTER":"45.0425","INCLINATION":"53.0552","TLE_LINE1":"1 47902U 21021AU  22327.86436265 -.00000882  00000-0 -40323-4 0  9990","MEAN_ELEMENT_THEORY":"SGP4","APOAPSIS":"548.546","SITE":"AFETR","ELEMENT_SET_NO":"999","PERIAPSIS":"545.888"},{"REV_AT_EPOCH":"9544","DECAY_DATE":null,"CENTER_NAME":"EARTH","MEAN_MOTION_DDOT":"0.0000000000000","PERIOD":"95.592","ECCENTRICITY":"0.00017340","MEAN_ANOMALY":"297.9799","OBJECT_NAME":"STARLINK-2363","TIME_SYSTEM":"UTC","OBJECT_ID":"2021-021AV","OBJECT_TYPE":"PAYLOAD","REF_FRAME":"TEME","GP_ID":"218542937","EPHEMERIS_TYPE":"0","RA_OF_ASC_NODE":"259.4009","FILE":"3668134","CLASSIFICATION_TYPE":"U","EPOCH":"2022-11-23T06:57:57.153312","MEAN_MOTION_DOT":"0.00000957","MEAN_MOTION":"15.06394763","SEMIMAJOR_AXIS":"6925.365","TLE_LINE2":"2 47903  53.0562 259.4009 0001734  62.1366 297.9799 15.06394763 95442","SITE":"AFETR","APOAPSIS":"548.430","TLE_LINE1":"1 47903U 21021AV  22327.29024483  .00000957  00000-0  83184-4 0  9996","MEAN_ELEMENT_THEORY":"SGP4","PERIAPSIS":"546.029","ELEMENT_SET_NO":"999","NORAD_CAT_ID":"47903","RCS_SIZE":"LARGE","COUNTRY_CODE":"US","BSTAR":"0.00008318400000","INCLINATION":"53.0562","ARG_OF_PERICENTER":"62.1366","LAUNCH_DATE":"2021-03-14"},{"MEAN_MOTION_DOT":"-0.00000253","MEAN_MOTION":"15.06385232","EPOCH":"2022-11-23T13:16:10.318080","SEMIMAJOR_AXIS":"6925.394","TLE_LINE2":"2 47904  53.0563 258.2313 0001440  64.5875 295.5263 15.06385232 94679","OBJECT_TYPE":"PAYLOAD","FILE":"3668163","CLASSIFICATION_TYPE":"U","REF_FRAME":"TEME","GP_ID":"218573455","RA_OF_ASC_NODE":"258.2313","EPHEMERIS_TYPE":"0","PERIOD":"95.593","OBJECT_ID":"2021-021AW","ECCENTRICITY":"0.00014400","MEAN_ANOMALY":"295.5263","OBJECT_NAME":"STARLINK-2364","TIME_SYSTEM":"UTC","REV_AT_EPOCH":"9467","DECAY_DATE":null,"CENTER_NAME":"EARTH","MEAN_MOTION_DDOT":"0.0000000000000","BSTAR":"0.00000190720000","COUNTRY_CODE":"US","LAUNCH_DATE":"2021-03-14","INCLINATION":"53.0563","ARG_OF_PERICENTER":"64.5875","NORAD_CAT_ID":"47904","RCS_SIZE":"LARGE","PERIAPSIS":"546.262","ELEMENT_SET_NO":"999","MEAN_ELEMENT_THEORY":"SGP4","TLE_LINE1":"1 47904U 21021AW  22327.55289720 -.00000253  00000-0  19072-5 0  9999","APOAPSIS":"548.256","SITE":"AFETR"},{"LAUNCH_DATE":"2021-03-14","ARG_OF_PERICENTER":"52.2079","INCLINATION":"53.0556","BSTAR":"0.00008095100000","COUNTRY_CODE":"US","RCS_SIZE":"LARGE","NORAD_CAT_ID":"47905","PERIAPSIS":"545.937","ELEMENT_SET_NO":"999","APOAPSIS":"548.502","TLE_LINE1":"1 47905U 21021AX  22327.54826221  .00000924  00000-0  80951-4 0  9999","MEAN_ELEMENT_THEORY":"SGP4","SITE":"AFETR","TLE_LINE2":"2 47905  53.0556 258.2354 0001852  52.2079 307.9077 15.06398145 95257","SEMIMAJOR_AXIS":"6925.354","MEAN_MOTION_DOT":"0.00000924","MEAN_MOTION":"15.06398145","EPOCH":"2022-11-23T13:09:29.854944","CLASSIFICATION_TYPE":"U","FILE":"3668134","EPHEMERIS_TYPE":"0","GP_ID":"218541936","RA_OF_ASC_NODE":"258.2354","REF_FRAME":"TEME","OBJECT_TYPE":"PAYLOAD","OBJECT_ID":"2021-021AX","TIME_SYSTEM":"UTC","OBJECT_NAME":"STARLINK-2365","MEAN_ANOMALY":"307.9077","ECCENTRICITY":"0.00018520","PERIOD":"95.592","MEAN_MOTION_DDOT":"0.0000000000000","CENTER_NAME":"EARTH","DECAY_DATE":null,"REV_AT_EPOCH":"9525"},{"OBJECT_ID":"2021-021AY","TIME_SYSTEM":"UTC","OBJECT_NAME":"STARLINK-2366","MEAN_ANOMALY":"291.0888","ECCENTRICITY":"0.00012920","PERIOD":"91.328","MEAN_MOTION_DDOT":"0.0000000000000","DECAY_DATE":null,"CENTER_NAME":"EARTH","REV_AT_EPOCH":"9860","TLE_LINE2":"2 47906  53.0195  17.9556 0001292  69.0269 291.0888 15.76736196 98600","SEMIMAJOR_AXIS":"6717.832","MEAN_MOTION_DOT":"0.00003838","MEAN_MOTION":"15.76736196","EPOCH":"2022-11-23T14:50:21.609888","CLASSIFICATION_TYPE":"U","FILE":"3668355","RA_OF_ASC_NODE":"17.9556","GP_ID":"218600135","EPHEMERIS_TYPE":"0","REF_FRAME":"TEME","OBJECT_TYPE":"PAYLOAD","PERIAPSIS":"338.829","ELEMENT_SET_NO":"999","TLE_LINE1":"1 47906U 21021AY  22327.61830567  .00003838  00000-0  27429-4 0  9994","MEAN_ELEMENT_THEORY":"SGP4","APOAPSIS":"340.565","SITE":"AFETR","LAUNCH_DATE":"2021-03-14","ARG_OF_PERICENTER":"69.0269","INCLINATION":"53.0195","BSTAR":"0.00002742900000","COUNTRY_CODE":"US","RCS_SIZE":"LARGE","NORAD_CAT_ID":"47906"},{"APOAPSIS":"548.472","TLE_LINE1":"1 47907U 21021AZ  22327.55843224 -.00000896  00000-0 -41273-4 0  9998","MEAN_ELEMENT_THEORY":"SGP4","SITE":"AFETR","ELEMENT_SET_NO":"999","PERIAPSIS":"546.030","RCS_SIZE":"LARGE","NORAD_CAT_ID":"47907","LAUNCH_DATE":"2021-03-14","ARG_OF_PERICENTER":"51.4598","INCLINATION":"53.0550","BSTAR":"-0.00004127300000","COUNTRY_CODE":"US","MEAN_MOTION_DDOT":"0.0000000000000","CENTER_NAME":"EARTH","DECAY_DATE":null,"REV_AT_EPOCH":"9438","OBJECT_ID":"2021-021AZ","OBJECT_NAME":"STARLINK-2367","TIME_SYSTEM":"UTC","MEAN_ANOMALY":"308.6549","ECCENTRICITY":"0.00017630","PERIOD":"95.593","CLASSIFICATION_TYPE":"U","FILE":"3668165","EPHEMERIS_TYPE":"0","GP_ID":"218573484","RA_OF_ASC_NODE":"278.2007","REF_FRAME":"TEME","OBJECT_TYPE":"PAYLOAD","TLE_LINE2":"2 47907  53.0550 278.2007 0001763  51.4598 308.6549 15.06387783 94389","SEMIMAJOR_AXIS":"6925.386","MEAN_MOTION_DOT":"-0.00000896","MEAN_MOTION":"15.06387783","EPOCH":"2022-11-23T13:24:08.545536"},{"NORAD_CAT_ID":"47908","RCS_SIZE":"LARGE","LAUNCH_DATE":"2021-03-14","INCLINATION":"53.0545","ARG_OF_PERICENTER":"46.2579","BSTAR":"-0.00003535900000","COUNTRY_CODE":"US","TLE_LINE1":"1 47908U 21021BA  22327.83118563 -.00000808  00000-0 -35359-4 0  9992","MEAN_ELEMENT_THEORY":"SGP4","APOAPSIS":"548.597","SITE":"AFETR","ELEMENT_SET_NO":"999","PERIAPSIS":"545.874","FILE":"3668355","CLASSIFICATION_TYPE":"U","REF_FRAME":"TEME","GP_ID":"218599134","EPHEMERIS_TYPE":"0","RA_OF_ASC_NODE":"276.9769","OBJECT_TYPE":"PAYLOAD","SEMIMAJOR_AXIS":"6925.370","TLE_LINE2":"2 47908  53.0545 276.9769 0001966  46.2579 313.8572 15.06392953 94895","MEAN_MOTION_DOT":"-0.00000808","MEAN_MOTION":"15.06392953","EPOCH":"2022-11-23T19:56:54.438432","CENTER_NAME":"EARTH","DECAY_DATE":null,"MEAN_MOTION_DDOT":"0.0000000000000","REV_AT_EPOCH":"9489","OBJECT_ID":"2021-021BA","MEAN_ANOMALY":"313.8572","ECCENTRICITY":"0.00019660","TIME_SYSTEM":"UTC","OBJECT_NAME":"STARLINK-2368","PERIOD":"95.593"}];
